[{"OBJECT_NAME":"LEMUR-2-ARIANNA","OBJECT_ID":"2025-009CU","EPOCH":"2026-03-09T17:46:47.419968","MEAN_MOTION":15.00881954,"ECCENTRICITY":0.00046401,"INCLINATION":97.6996,"RA_OF_ASC_NODE":151.0445,"ARG_OF_PERICENTER":147.3928,"MEAN_ANOMALY":212.7583,"EPHEMERIS_TYPE":0,"CLASSIFICATION_TYPE":"U","NORAD_CAT_ID":62699,"ELEMENT_SET_NO":999,"REV_AT_EPOCH":6263,"BSTAR":0.00071790312,"MEAN_MOTION_DOT":9.084e-5,"MEAN_MOTION_DDOT":0},{"OBJECT_NAME":"STARLINK-35982","OBJECT_ID":"2025-280H","EPOCH":"2026-03-09T21:27:09.755424","MEAN_MOTION":14.98311944,"ECCENTRICITY":0.00028949,"INCLINATION":70.0018,"RA_OF_ASC_NODE":334.0542,"ARG_OF_PERICENTER":276.8858,"MEAN_ANOMALY":83.1972,"EPHEMERIS_TYPE":0,"CLASSIFICATION_TYPE":"U","NORAD_CAT_ID":66828,"ELEMENT_SET_NO":999,"REV_AT_EPOCH":1610,"BSTAR":0.00020800012,"MEAN_MOTION_DOT":2.389e-5,"MEAN_MOTION_DDOT":0}]
